ONEWEB-0427             
1 50499U 21132AG  25344.49525578  .00000043  00000+0  76952-4 0  9998
2 50499  87.9182  12.9069 0001614 101.2068 258.9246 13.18686793196746
ONEWEB-0429             
1 50500U 21132AH  25344.48206126  .00000026  00000+0  33232-4 0  9990
2 50500  87.9183  12.9416 0001857  90.4882 269.6463 13.18685758196715
ONEWEB-0430             
1 50501U 21132AJ  25344.47051169  .00000040  00000+0  68964-4 0  9991
2 50501  87.9186  12.9394 0001671  86.0999 274.0325 13.18686562196753
ONEWEB-0432             
1 50502U 21132AK  25344.50241996 -.00000001  00000+0 -34353-4 0  9999
2 50502  87.9179  12.9053 0000897 110.3982 249.7247 13.18676616196717
ONEWEB-0440             
1 50503U 21132AL  25344.49031046  .00000040  00000+0  68793-4 0  9997
2 50503  87.9183  12.9255 0002222  95.2491 264.8895 13.18685356196704
ONEWEB-0450             
1 50504U 21132AM  25344.48383915  .00000022  00000+0  23312-4 0  9990
2 50504  87.9180  12.9488 0001883  86.1806 273.9541 13.18687870196736
ONEWEB-0410             
1 51622U 22012A   25344.21215094 -.00000010  00000+0 -58080-4 0  9992
2 51622  87.9124  43.4194 0001962 145.5678 214.5581 13.17649665188818
ONEWEB-0411             
1 51623U 22012B   25344.48633909  .00000441  00000+0  12266-2 0  9991
2 51623  87.8806  73.8843 0001325  85.9340 274.1939 13.10370240184570
